     2.10           G: GLONASS NAV DATA                     RINEX VERSION / TYPE
teqc  2015Jun23                         20210712 01:25:49UTCPGM / RUN BY / DATE
Linux 2.4.21-27.ELsmp|Opteron|gcc -static|Linux x86_64|=+   COMMENT
  2021     6    18    3.166496753693D-08                    CORR TO SYSTEM TIME
                                                            END OF HEADER
 7 21  6 19 19 15  0.0-4.227925091982D-05 0.000000000000D+00 6.978000000000D+04
    6.033542480469D+03-1.371086120605D+00 0.000000000000D+00 0.000000000000D+00
    1.115587597656D+04 2.696521759033D+00-9.313225746155D-10 5.000000000000D+00
    2.216533203125D+04-9.895162582397D-01-2.793967723846D-09 0.000000000000D+00
 6 21  6 19 19 45  0.0 2.000024542212D-04 0.000000000000D+00 7.020000000000D+04
   -5.443708496094D+03-1.186876296997D-01-9.313225746155D-10 0.000000000000D+00
    2.427119335938D+04 7.710628509521D-01-9.313225746155D-10-4.000000000000D+00
    5.601507812500D+03-3.454584121704D+00-9.313225746155D-10 0.000000000000D+00
 7 21  6 19 19 45  0.0-4.228018224239D-05 0.000000000000D+00 7.020000000000D+04
    4.036211425781D+03-8.441925048828D-01-0.000000000000D+00 0.000000000000D+00
    1.590763330078D+04 2.533357620239D+00-9.313225746155D-10 5.000000000000D+00
    1.955301660156D+04-1.894450187683D+00-2.793967723846D-09 0.000000000000D+00
 5 21  6 19 19 45  0.0 7.385760545731D-05 0.000000000000D+00 7.020000000000D+04
   -1.318444140625D+04 7.920551300049D-01-9.313225746155D-10 0.000000000000D+00
    1.702041552734D+04-1.703789710999D+00-0.000000000000D+00 1.000000000000D+00
   -1.364939306641D+04-2.888169288635D+00 9.313225746155D-10 0.000000000000D+00
 9 21  6 19 19 45  0.0-1.238659024239D-06 2.728484105319D-12 7.020000000000D+04
    4.455225097656D+03-1.475193023682D+00-0.000000000000D+00 0.000000000000D+00
    1.827058398438D+04-1.842404365540D+00-9.313225746155D-10-2.000000000000D+00
    1.729124121094D+04 2.322354316711D+00-2.793967723846D-09 0.000000000000D+00
10 21  6 19 19 45  0.0-7.204245775938D-05-9.094947017729D-13 7.020000000000D+04
    1.544973876953D+04-1.352977752686D-01 2.793967723846D-09 0.000000000000D+00
    2.005835546875D+04-3.902845382690D-01-9.313225746155D-10-7.000000000000D+00
    2.796961425781D+03 3.546146392822D+00-9.313225746155D-10 0.000000000000D+00
19 21  6 19 19 45  0.0-1.483727246523D-04-9.094947017729D-13 7.167000000000D+04
   -2.367833544922D+04-9.209909439087D-01-2.793967723846D-09 0.000000000000D+00
    6.389001953125D+03 3.723001480103D-01-0.000000000000D+00 3.000000000000D+00
   -7.028053710938D+03 3.444463729858D+00 9.313225746155D-10 0.000000000000D+00
 6 21  6 19 20 15  0.0 2.000033855438D-04 0.000000000000D+00 7.200000000000D+04
   -5.373896484375D+03 1.588315963745D-01-9.313225746155D-10 0.000000000000D+00
    2.491406542969D+04-7.254314422607D-02-9.313225746155D-10-4.000000000000D+00
   -7.531494140625D+02-3.560230255127D+00-0.000000000000D+00 0.000000000000D+00
 7 21  6 19 20 15  0.0-4.227925091982D-05 0.000000000000D+00 7.200000000000D+04
    2.976000976562D+03-3.477592468262D-01-0.000000000000D+00 0.000000000000D+00
    2.010157861328D+04 2.081084251404D+00-9.313225746155D-10 5.000000000000D+00
    1.543254931641D+04-2.654348373413D+00-1.862645149231D-09 0.000000000000D+00
 5 21  6 19 20 15  0.0 7.385853677988D-05 0.000000000000D+00 7.200000000000D+04
   -1.183424951172D+04 6.693038940430D-01-9.313225746155D-10 0.000000000000D+00
    1.328916748047D+04-2.415624618530D+00 0.000000000000D+00 1.000000000000D+00
   -1.825209033203D+04-2.192667961121D+00 1.862645149231D-09 0.000000000000D+00
 9 21  6 19 20 15  0.0-1.234002411366D-06 2.728484105319D-12 7.200000000000D+04
    1.247679687500D+03-2.074633598328D+00-9.313225746155D-10 0.000000000000D+00
    1.483539697266D+04-1.929040908813D+00-9.313225746155D-10-2.000000000000D+00
    2.075216162109D+04 1.498151779175D+00-2.793967723846D-09 0.000000000000D+00
10 21  6 19 20 15  0.0-7.204432040453D-05-9.094947017729D-13 7.200000000000D+04
    1.460224707031D+04-8.251285552979D-01 9.313225746155D-10 0.000000000000D+00
    1.883882714844D+04-9.275455474854D-01-9.313225746155D-10-7.000000000000D+00
    8.988607910156D+03 3.288605690002D+00-1.862645149231D-09 0.000000000000D+00
19 21  6 19 20 15  0.0-1.483745872974D-04-9.094947017729D-13 7.200000000000D+04
   -2.452158105469D+04-1.568317413330D-02-3.725290298462D-09 0.000000000000D+00
    7.005456054688D+03 2.694377899170D-01-0.000000000000D+00 3.000000000000D+00
   -6.364760742188D+02 3.611190795898D+00 0.000000000000D+00 0.000000000000D+00
20 21  6 19 20 15  0.0-5.114544183016D-05-0.000000000000D+00 7.320000000000D+04
   -1.288791601562D+04-2.402368545532D+00-9.313225746155D-10 0.000000000000D+00
    1.198899072266D+04 8.136949539185D-01 0.000000000000D+00 2.000000000000D+00
   -1.844266406250D+04 2.211398124695D+00 1.862645149231D-09 0.000000000000D+00
 6 21  6 19 20 45  0.0 2.000043168664D-04 0.000000000000D+00 7.380000000000D+04
   -5.015229980469D+03 1.989908218384D-01-9.313225746155D-10 0.000000000000D+00
    2.398748242188D+04-9.534959793091D-01-0.000000000000D+00-4.000000000000D+00
   -7.049512207031D+03-3.390250205994D+00 0.000000000000D+00 0.000000000000D+00
10 21  6 19 20 45  0.0-7.204618304968D-05-9.094947017729D-13 7.380000000000D+04
    1.244372851562D+04-1.573728561401D+00 0.000000000000D+00 0.000000000000D+00
    1.686811669922D+04-1.218070030212D+00-9.313225746155D-10-7.000000000000D+00
    1.448245068359D+04 2.775918960571D+00-2.793967723846D-09 0.000000000000D+00
 5 21  6 19 20 45  0.0 7.385946810246D-05 0.000000000000D+00 7.380000000000D+04
   -1.089657031250D+04 3.450574874878D-01-9.313225746155D-10 0.000000000000D+00
    8.448296386719D+03-2.921600341797D+00 0.000000000000D+00 1.000000000000D+00
   -2.144086181641D+04-1.327385902405D+00 2.793967723846D-09 0.000000000000D+00
 7 21  6 19 20 45  0.0-4.227925091982D-05 0.000000000000D+00 7.380000000000D+04
    2.705527343750D+03 1.828861236572D-02-9.313225746155D-10 0.000000000000D+00
    2.325408886719D+04 1.387687683105D+00-9.313225746155D-10 5.000000000000D+00
    1.012011865234D+04-3.210171699524D+00-1.862645149231D-09 0.000000000000D+00
 9 21  6 19 20 45  0.0-1.230277121067D-06 1.818989403546D-12 7.380000000000D+04
   -2.931464355469D+03-2.538026809692D+00-1.862645149231D-09 0.000000000000D+00
    1.148054785156D+04-1.759552001953D+00-9.313225746155D-10-2.000000000000D+00
    2.261470996094D+04 5.577926635742D-01-1.862645149231D-09 0.000000000000D+00
19 21  6 19 20 45  0.0-1.483773812652D-04-9.094947017729D-13 7.380000000000D+04
   -2.377022412109D+04 8.309497833252D-01-3.725290298462D-09 0.000000000000D+00
    7.209437988281D+03-8.110904693604D-02 0.000000000000D+00 3.000000000000D+00
    5.804291992188D+03 3.498744010925D+00 0.000000000000D+00 0.000000000000D+00
20 21  6 19 20 45  0.0-5.114730447531D-05-0.000000000000D+00 7.380000000000D+04
   -1.657480664062D+04-1.668647766113D+00-1.862645149231D-09 0.000000000000D+00
    1.358695458984D+04 9.205560684204D-01 0.000000000000D+00 2.000000000000D+00
   -1.379945361328D+04 2.914232254028D+00 1.862645149231D-09 0.000000000000D+00
21 21  6 19 20 45  0.0-2.177674323320D-04-2.728484105319D-12 7.491000000000D+04
    2.391245605469D+03-2.885549545288D+00 0.000000000000D+00 0.000000000000D+00
    1.037899023438D+04 1.329342842102D+00 0.000000000000D+00 4.000000000000D+00
   -2.318649511719D+04 2.951240539551D-01 1.862645149231D-09 0.000000000000D+00
 8 21  6 19 20 45  0.0-5.957763642073D-05 0.000000000000D+00 7.554000000000D+04
    9.289934082031D+03-2.055377960205D-01-0.000000000000D+00 0.000000000000D+00
    1.033344335938D+04 2.914974212646D+00-9.313225746155D-10 6.000000000000D+00
    2.144541943359D+04-1.320715904236D+00-2.793967723846D-09 0.000000000000D+00
20 21  6 19 21 15  0.0-5.114823579788D-05-9.094947017729D-13 7.560000000000D+04
   -1.883759863281D+04-8.395862579346D-01-2.793967723846D-09 0.000000000000D+00
    1.514450927734D+04 7.648439407349D-01 0.000000000000D+00 2.000000000000D+00
   -8.087072265625D+03 3.391578674316D+00 9.313225746155D-10 0.000000000000D+00
 6 21  6 19 21 15  0.0 2.000052481890D-04 0.000000000000D+00 7.560000000000D+04
   -4.799042968750D+03 4.768371582031D-03-9.313225746155D-10 0.000000000000D+00
    2.152883593750D+04-1.755911827087D+00-0.000000000000D+00-4.000000000000D+00
   -1.280024853516D+04-2.957952499390D+00 9.313225746155D-10 0.000000000000D+00
 7 21  6 19 21 15  0.0-4.227925091982D-05-0.000000000000D+00 7.560000000000D+04
    2.918142578125D+03 1.794757843018D-01-9.313225746155D-10 0.000000000000D+00
    2.500361035156D+04 5.390491485596D-01-9.313225746155D-10 5.000000000000D+00
    4.024934082031D+03-3.518298149109D+00-9.313225746155D-10 0.000000000000D+00
 8 21  6 19 21 15  0.0-5.957670509815D-05 0.000000000000D+00 7.560000000000D+04
    9.302287597656D+03 2.001762390137D-01-9.313225746155D-10 0.000000000000D+00
    1.523283105469D+04 2.483506202698D+00-9.313225746155D-10 6.000000000000D+00
    1.827386523438D+04-2.180636405945D+00-2.793967723846D-09 0.000000000000D+00
10 21  6 19 21 15  0.0-7.204711437225D-05-0.000000000000D+00 7.560000000000D+04
    8.969617675781D+03-2.267834663391D+00-9.313225746155D-10 0.000000000000D+00
    1.461379736328D+04-1.243443489075D+00-9.313225746155D-10-7.000000000000D+00
    1.885261230469D+04 2.048288345337D+00-2.793967723846D-09 0.000000000000D+00
21 21  6 19 21 15  0.0-2.177720889449D-04-2.728484105319D-12 7.560000000000D+04
   -2.481240722656D+03-2.487023353577D+00-0.000000000000D+00 0.000000000000D+00
    1.308743115234D+04 1.647376060486D+00 0.000000000000D+00 4.000000000000D+00
   -2.176688134766D+04 1.271936416626D+00 1.862645149231D-09 0.000000000000D+00
20 21  6 19 21 45  0.0-5.115009844303D-05-9.094947017729D-13 7.740000000000D+04
   -1.961214208984D+04-3.497219085693D-02-3.725290298462D-09 0.000000000000D+00
    1.618200439453D+04 3.467378616333D-01 9.313225746155D-10 2.000000000000D+00
   -1.747850585938D+03 3.606146812439D+00 9.313225746155D-10 0.000000000000D+00
